CUPID                   
1 49264U 21088E   26068.66993977  .00009454  00000+0  38662-3 0  9991
2 49264  97.3985 131.0756 0013746  59.9938 300.2662 15.24473777245013
STARLINK-31231          
1 59034U 24038M   26068.26950667 -.00000305  00000+0 -15589-5 0  9993
2 59034  43.0047  25.9678 0001200 275.6267  84.4448 15.27574784114622
